     2.11           N: GPS NAV DATA                         RINEX VERSION / TYPE
teqc  2019Feb25                         20221121 12:23:58UTCPGM / RUN BY / DATE
OSX ker:10.11.6|Core i5|gcc 4.3 -m64|OSX ker:10.10+|=+      COMMENT
    6.5193D-09  2.2352D-08 -5.9605D-08 -1.1921D-07          ION ALPHA
    8.6016D+04  9.8304D+04 -6.5536D+04 -5.2429D+05          ION BETA
    0.000000000000D+00-4.440892098501D-15   147456     1535 DELTA-UTC: A0,A1,T,W
                                                            END OF HEADER
16 09  6  6 23 59 44.0 4.430115222931D-05-3.410605131648D-12 0.000000000000D+00
    1.500000000000D+01-2.290625000000D+01 4.373396455231D-09 2.764132039046D+00
   -1.022592186928D-06 5.356778274290D-03 9.965151548386D-06 5.153559986115D+03
    6.047840000000D+05-9.872019290924D-08-2.596679915467D+00 1.676380634308D-07
    9.687314652454D-01 1.931250000000D+02-3.489103155494D-01-7.632460779770D-09
    5.839528954106D-10 1.000000000000D+00 1.534000000000D+03 0.000000000000D+00
    2.000000000000D+00 0.000000000000D+00-9.778887033463D-09 1.500000000000D+01
    6.012060000000D+05 4.000000000000D+00
